[{"OBJECT_NAME":"STARLINK-11575 [DTC]","OBJECT_ID":"2025-057B","EPOCH":"2026-03-09T22:07:46.339104","MEAN_MOTION":15.70895329,"ECCENTRICITY":0.00016142,"INCLINATION":43.0011,"RA_OF_ASC_NODE":263.1767,"ARG_OF_PERICENTER":263.7812,"MEAN_ANOMALY":96.2872,"EPHEMERIS_TYPE":0,"CLASSIFICATION_TYPE":"U","NORAD_CAT_ID":63308,"ELEMENT_SET_NO":999,"REV_AT_EPOCH":5721,"BSTAR":0.0020082953,"MEAN_MOTION_DOT":0.00266288,"MEAN_MOTION_DDOT":0},{"OBJECT_NAME":"FENGYUN 1C DEB","OBJECT_ID":"1999-025BHM","EPOCH":"2026-03-07T15:41:41.908992","MEAN_MOTION":15.52424712,"ECCENTRICITY":0.00874412,"INCLINATION":97.8053,"RA_OF_ASC_NODE":37.5391,"ARG_OF_PERICENTER":68.6008,"MEAN_ANOMALY":292.4545,"EPHEMERIS_TYPE":0,"CLASSIFICATION_TYPE":"U","NORAD_CAT_ID":31159,"ELEMENT_SET_NO":999,"REV_AT_EPOCH":844,"BSTAR":0.0020496514,"MEAN_MOTION_DOT":0.00149592,"MEAN_MOTION_DDOT":0}]
